start=new Date('2022-01-23T00:00:00.000Z').valueOf();
sats=[{"FILE":"3280062","SITE":"AFETR","ELEMENT_SET_NO":"999","EPHEMERIS_TYPE":"0","OBJECT_NAME":"STARLINK-1673","PERIOD":"95.592","CLASSIFICATION_TYPE":"U","APOAPSIS":"548.361","OBJECT_ID":"2020-062C","CENTER_NAME":"EARTH","REV_AT_EPOCH":"7713","COUNTRY_CODE":"US","MEAN_MOTION":"15.06399036","MEAN_MOTION_DOT":"-0.00001414","RA_OF_ASC_NODE":"302.8026","ARG_OF_PERICENTER":"58.2195","SEMIMAJOR_AXIS":"6925.352","TIME_SYSTEM":"UTC","GP_ID":"194395039","BSTAR":"-0.00007601400000","MEAN_MOTION_DDOT":"0.0000000000000","DECAY_DATE":null,"TLE_LINE1":"1 46327U 20062C   22022.47001091 -.00001414  00000-0 -76014-4 0  9996","MEAN_ELEMENT_THEORY":"SGP4","PERIAPSIS":"546.072","RCS_SIZE":"LARGE","NORAD_CAT_ID":"46327","REF_FRAME":"TEME","TLE_LINE2":"2 46327  53.0549 302.8026 0001653  58.2195 301.8955 15.06399036 77137","EPOCH":"2022-01-22T11:16:48.942624","INCLINATION":"53.0549","OBJECT_TYPE":"PAYLOAD","MEAN_ANOMALY":"301.8955","LAUNCH_DATE":"2020-09-03","ECCENTRICITY":"0.00016530"},{"OBJECT_NAME":"STARLINK-1546","PERIOD":"93.856","FILE":"3280062","SITE":"AFETR","ELEMENT_SET_NO":"999","EPHEMERIS_TYPE":"0","COUNTRY_CODE":"US","MEAN_MOTION":"15.34263811","MEAN_MOTION_DOT":"0.00001593","RA_OF_ASC_NODE":"174.5113","CLASSIFICATION_TYPE":"U","APOAPSIS":"464.513","OBJECT_ID":"2020-062X","CENTER_NAME":"EARTH","REV_AT_EPOCH":"7895","BSTAR":"0.00005853400000","MEAN_MOTION_DDOT":"0.0000000000000","DECAY_DATE":null,"TLE_LINE1":"1 46346U 20062X   22022.55976344  .00001593  00000-0  58534-4 0  9991","MEAN_ELEMENT_THEORY":"SGP4","PERIAPSIS":"461.707","ARG_OF_PERICENTER":"40.2325","SEMIMAJOR_AXIS":"6841.245","TIME_SYSTEM":"UTC","GP_ID":"194394039","ECCENTRICITY":"0.00020510","RCS_SIZE":"LARGE","REF_FRAME":"TEME","NORAD_CAT_ID":"46346","TLE_LINE2":"2 46346  53.0540 174.5113 0002051  40.2325 319.8828 15.34263811 78950","INCLINATION":"53.0540","EPOCH":"2022-01-22T13:26:03.561216","MEAN_ANOMALY":"319.8828","OBJECT_TYPE":"PAYLOAD","LAUNCH_DATE":"2020-09-03"},{"RCS_SIZE":"LARGE","NORAD_CAT_ID":"46351","REF_FRAME":"TEME","TLE_LINE2":"2 46351  53.0542 284.1672 0001799  60.0009 300.1158 15.06385053 77559","INCLINATION":"53.0542","EPOCH":"2022-01-22T03:53:37.610304","OBJECT_TYPE":"PAYLOAD","MEAN_ANOMALY":"300.1158","LAUNCH_DATE":"2020-09-03","ECCENTRICITY":"0.00017990","ARG_OF_PERICENTER":"60.0009","SEMIMAJOR_AXIS":"6925.394","TIME_SYSTEM":"UTC","GP_ID":"194401727","BSTAR":"-0.00004599200000","MEAN_MOTION_DDOT":"0.0000000000000","DECAY_DATE":null,"TLE_LINE1":"1 46351U 20062AC  22022.16224086 -.00000966  00000-0 -45992-4 0  9992","MEAN_ELEMENT_THEORY":"SGP4","PERIAPSIS":"546.013","CLASSIFICATION_TYPE":"U","OBJECT_ID":"2020-062AC","APOAPSIS":"548.505","CENTER_NAME":"EARTH","REV_AT_EPOCH":"7755","COUNTRY_CODE":"US","MEAN_MOTION":"15.06385053","MEAN_MOTION_DOT":"-0.00000966","RA_OF_ASC_NODE":"284.1672","FILE":"3280225","SITE":"AFETR","ELEMENT_SET_NO":"999","EPHEMERIS_TYPE":"0","OBJECT_NAME":"STARLINK-1646","PERIOD":"95.593"},{"ECCENTRICITY":"0.00017890","OBJECT_TYPE":"PAYLOAD","MEAN_ANOMALY":"294.4472","INCLINATION":"53.0556","EPOCH":"2022-01-22T11:27:26.408736","LAUNCH_DATE":"2020-09-03","RCS_SIZE":"LARGE","TLE_LINE2":"2 46383  53.0556 302.7631 0001789  65.6704 294.4472 15.06397381 77138","NORAD_CAT_ID":"46383","REF_FRAME":"TEME","MEAN_ELEMENT_THEORY":"SGP4","PERIAPSIS":"545.983","DECAY_DATE":null,"MEAN_MOTION_DDOT":"0.0000000000000","BSTAR":"-0.00004658200000","TLE_LINE1":"1 46383U 20062BL  22022.47738899 -.00000975  00000-0 -46582-4 0  9999","TIME_SYSTEM":"UTC","GP_ID":"194393793","SEMIMAJOR_AXIS":"6925.357","ARG_OF_PERICENTER":"65.6704","MEAN_MOTION_DOT":"-0.00000975","RA_OF_ASC_NODE":"302.7631","MEAN_MOTION":"15.06397381","COUNTRY_CODE":"US","REV_AT_EPOCH":"7713","APOAPSIS":"548.461","OBJECT_ID":"2020-062BL","CLASSIFICATION_TYPE":"U","CENTER_NAME":"EARTH","PERIOD":"95.592","OBJECT_NAME":"STARLINK-1770","EPHEMERIS_TYPE":"0","FILE":"3280062","ELEMENT_SET_NO":"999","SITE":"AFETR"},{"OBJECT_ID":"2020-070AN","APOAPSIS":"422.532","CLASSIFICATION_TYPE":"U","CENTER_NAME":"EARTH","REV_AT_EPOCH":"7287","MEAN_MOTION":"15.49806716","COUNTRY_CODE":"US","MEAN_MOTION_DOT":"0.00098661","RA_OF_ASC_NODE":"65.4026","FILE":"3280278","ELEMENT_SET_NO":"999","SITE":"AFETR","EPHEMERIS_TYPE":"0","OBJECT_NAME":"STARLINK-1743","PERIOD":"92.915","RCS_SIZE":"LARGE","TLE_LINE2":"2 46568  53.0512  65.4026 0007709 108.3514 251.8332 15.49806716 72870","REF_FRAME":"TEME","NORAD_CAT_ID":"46568","MEAN_ANOMALY":"251.8332","OBJECT_TYPE":"PAYLOAD","EPOCH":"2022-01-22T09:44:54.974976","INCLINATION":"53.0512","LAUNCH_DATE":"2020-10-06","ECCENTRICITY":"0.00077090","SEMIMAJOR_AXIS":"6795.428","ARG_OF_PERICENTER":"108.3514","TIME_SYSTEM":"UTC","GP_ID":"194403378","DECAY_DATE":null,"MEAN_MOTION_DDOT":"0.0000000000000","BSTAR":"0.00172730000000","TLE_LINE1":"1 46568U 20070AN  22022.40619184  .00098661  00000-0  17273-2 0  9991","MEAN_ELEMENT_THEORY":"SGP4","PERIAPSIS":"412.054"},{"EPHEMERIS_TYPE":"0","FILE":"3280062","ELEMENT_SET_NO":"999","SITE":"AFETR","PERIOD":"95.592","OBJECT_NAME":"STARLINK-1718","REV_AT_EPOCH":"6997","OBJECT_ID":"2020-073E","APOAPSIS":"548.650","CLASSIFICATION_TYPE":"U","CENTER_NAME":"EARTH","MEAN_MOTION_DOT":"-0.00000063","RA_OF_ASC_NODE":"167.3010","MEAN_MOTION":"15.06394690","COUNTRY_CODE":"US","TIME_SYSTEM":"UTC","GP_ID":"194393822","SEMIMAJOR_AXIS":"6925.365","ARG_OF_PERICENTER":"80.7658","MEAN_ELEMENT_THEORY":"SGP4","PERIAPSIS":"545.809","DECAY_DATE":null,"MEAN_MOTION_DDOT":"0.0000000000000","BSTAR":"0.00001469800000","TLE_LINE1":"1 46674U 20073E   22022.58011484 -.00000063  00000-0  14698-4 0  9990","OBJECT_TYPE":"PAYLOAD","MEAN_ANOMALY":"279.3563","INCLINATION":"53.0536","EPOCH":"2022-01-22T13:55:21.922176","LAUNCH_DATE":"2020-10-18","RCS_SIZE":"LARGE","TLE_LINE2":"2 46674  53.0536 167.3010 0002051  80.7658 279.3563 15.06394690 69970","REF_FRAME":"TEME","NORAD_CAT_ID":"46674","ECCENTRICITY":"0.00020510"},{"OBJECT_NAME":"STARLINK-1786","PERIOD":"90.443","FILE":"3280319","ELEMENT_SET_NO":"999","SITE":"AFETR","EPHEMERIS_TYPE":"0","MEAN_MOTION":"15.92164825","COUNTRY_CODE":"US","MEAN_MOTION_DOT":"0.00870602","RA_OF_ASC_NODE":"128.3581","APOAPSIS":"301.441","OBJECT_ID":"2020-073U","CLASSIFICATION_TYPE":"U","CENTER_NAME":"EARTH","REV_AT_EPOCH":"7100","MEAN_MOTION_DDOT":"0.0003297600000","DECAY_DATE":null,"BSTAR":"0.00255150000000","TLE_LINE1":"1 46688U 20073U   22022.58832857  .00870602  32976-3  25515-2 0  9991","PERIAPSIS":"291.015","MEAN_ELEMENT_THEORY":"SGP4","SEMIMAJOR_AXIS":"6674.363","ARG_OF_PERICENTER":"281.9981","TIME_SYSTEM":"UTC","GP_ID":"194404284","ECCENTRICITY":"0.00078110","RCS_SIZE":"LARGE","TLE_LINE2":"2 46688  53.0512 128.3581 0007811 281.9981  78.0169 15.92164825 71005","REF_FRAME":"TEME","NORAD_CAT_ID":"46688","OBJECT_TYPE":"PAYLOAD","MEAN_ANOMALY":"78.0169","INCLINATION":"53.0512","EPOCH":"2022-01-22T14:07:11.588448","LAUNCH_DATE":"2020-10-18"},{"REV_AT_EPOCH":"6996","APOAPSIS":"548.585","OBJECT_ID":"2020-073AZ","CLASSIFICATION_TYPE":"U","CENTER_NAME":"EARTH","MEAN_MOTION_DOT":"-0.00000247","RA_OF_ASC_NODE":"167.4555","MEAN_MOTION":"15.06392756","COUNTRY_CODE":"US","EPHEMERIS_TYPE":"0","FILE":"3280062","ELEMENT_SET_NO":"999","SITE":"AFETR","PERIOD":"95.593","OBJECT_NAME":"STARLINK-1820","MEAN_ANOMALY":"275.7294","OBJECT_TYPE":"PAYLOAD","EPOCH":"2022-01-22T13:02:18.017376","INCLINATION":"53.0541","LAUNCH_DATE":"2020-10-18","RCS_SIZE":"LARGE","TLE_LINE2":"2 46717  53.0541 167.4555 0001948  84.3917 275.7294 15.06392756 69962","NORAD_CAT_ID":"46717","REF_FRAME":"TEME","ECCENTRICITY":"0.00019480","TIME_SYSTEM":"UTC","GP_ID":"194394828","SEMIMAJOR_AXIS":"6925.371","ARG_OF_PERICENTER":"84.3917","MEAN_ELEMENT_THEORY":"SGP4","PERIAPSIS":"545.887","DECAY_DATE":null,"MEAN_MOTION_DDOT":"0.0000000000000","BSTAR":"0.00000236100000","TLE_LINE1":"1 46717U 20073AZ  22022.54326409 -.00000247  00000-0  23610-5 0  9999"},{"BSTAR":"-0.00001727300000","MEAN_MOTION_DDOT":"0.0000110830000","DECAY_DATE":null,"TLE_LINE1":"1 47131U 20088K   22021.85421985 -.00009295  11083-4 -17273-4 0  9991","PERIAPSIS":"292.287","MEAN_ELEMENT_THEORY":"SGP4","ARG_OF_PERICENTER":"291.5223","SEMIMAJOR_AXIS":"6675.754","TIME_SYSTEM":"UTC","GP_ID":"194394123","ECCENTRICITY":"0.00079880","RCS_SIZE":"LARGE","REF_FRAME":"TEME","NORAD_CAT_ID":"47131","TLE_LINE2":"2 47131  53.0503 152.5389 0007988 291.5223  68.4951 15.91667111 65678","INCLINATION":"53.0503","EPOCH":"2022-01-21T20:30:04.595040","OBJECT_TYPE":"PAYLOAD","MEAN_ANOMALY":"68.4951","LAUNCH_DATE":"2020-11-25","OBJECT_NAME":"STARLINK-1840","PERIOD":"90.471","FILE":"3280062","SITE":"AFETR","ELEMENT_SET_NO":"999","EPHEMERIS_TYPE":"0","COUNTRY_CODE":"US","MEAN_MOTION":"15.91667111","MEAN_MOTION_DOT":"-0.00009295","RA_OF_ASC_NODE":"152.5389","CLASSIFICATION_TYPE":"U","APOAPSIS":"302.952","OBJECT_ID":"2020-088K","CENTER_NAME":"EARTH","REV_AT_EPOCH":"6567"},{"REV_AT_EPOCH":"6620","APOAPSIS":"293.922","OBJECT_ID":"2020-088U","CLASSIFICATION_TYPE":"U","CENTER_NAME":"EARTH","MEAN_MOTION_DOT":"0.01152699","RA_OF_ASC_NODE":"140.0185","MEAN_MOTION":"15.94709319","COUNTRY_CODE":"US","EPHEMERIS_TYPE":"0","FILE":"3280195","ELEMENT_SET_NO":"999","SITE":"AFETR","PERIOD":"90.299","OBJECT_NAME":"STARLINK-1853","MEAN_ANOMALY":"170.8513","OBJECT_TYPE":"PAYLOAD","INCLINATION":"53.0400","EPOCH":"2022-01-22T14:17:19.114368","LAUNCH_DATE":"2020-11-25","RCS_SIZE":"LARGE","TLE_LINE2":"2 47140  53.0400 140.0185 0007193 189.2383 170.8513 15.94709319 66200","NORAD_CAT_ID":"47140","REF_FRAME":"TEME","ECCENTRICITY":"0.00071930","TIME_SYSTEM":"UTC","GP_ID":"194401085","SEMIMAJOR_AXIS":"6667.261","ARG_OF_PERICENTER":"189.2383","PERIAPSIS":"284.331","MEAN_ELEMENT_THEORY":"SGP4","MEAN_MOTION_DDOT":"0.0006308500000","DECAY_DATE":null,"BSTAR":"0.00296420000000","TLE_LINE1":"1 47140U 20088U   22022.59536012  .01152699  63085-3  29642-2 0  9996"}];
